[{"OBJECT_NAME":"TIANYAN 23","OBJECT_ID":"2025-051B","EPOCH":"2026-03-09T23:26:47.311872","MEAN_MOTION":15.41906998,"ECCENTRICITY":0.00071474,"INCLINATION":97.4557,"RA_OF_ASC_NODE":153.5654,"ARG_OF_PERICENTER":100.2199,"MEAN_ANOMALY":259.9854,"EPHEMERIS_TYPE":0,"CLASSIFICATION_TYPE":"U","NORAD_CAT_ID":63209,"ELEMENT_SET_NO":999,"REV_AT_EPOCH":5504,"BSTAR":0.00093276918,"MEAN_MOTION_DOT":0.00039734,"MEAN_MOTION_DDOT":0},{"OBJECT_NAME":"CZ-4B R\/B","OBJECT_ID":"2024-208C","EPOCH":"2026-03-09T16:49:23.143584","MEAN_MOTION":15.26980605,"ECCENTRICITY":0.01307988,"INCLINATION":97.9574,"RA_OF_ASC_NODE":113.1946,"ARG_OF_PERICENTER":150.913,"MEAN_ANOMALY":209.9477,"EPHEMERIS_TYPE":0,"CLASSIFICATION_TYPE":"U","NORAD_CAT_ID":61938,"ELEMENT_SET_NO":999,"REV_AT_EPOCH":7308,"BSTAR":0.00035146236,"MEAN_MOTION_DOT":0.000119,"MEAN_MOTION_DDOT":0}]
